start=new Date('2022-11-10T00:00:00.000Z').valueOf();
sats=[{"TIME_SYSTEM":"UTC","EPHEMERIS_TYPE":"0","NORAD_CAT_ID":"53576","MEAN_ANOMALY":"57.3147","MEAN_ELEMENT_THEORY":"SGP4","REF_FRAME":"TEME","TLE_LINE1":"1 53576U 22101BB  22314.00001157 -.01104831  00000-0 -48160-1 0  9998","DECAY_DATE":null,"MEAN_MOTION_DOT":"-0.01104831","INCLINATION":"53.2168","TLE_LINE2":"2 53576  53.2168 111.5954 0001566  54.3360  57.3147 15.24795429  1307","OBJECT_ID":"2022-101BB","SITE":"AFETR","PERIOD":"94.439","ECCENTRICITY":"0.00015660","LAUNCH_DATE":"2022-08-19","MEAN_MOTION":"15.24795429","BSTAR":"-0.04816000000000","EPOCH":"2022-11-10T00:00:00.999648","RCS_SIZE":"LARGE","SEMIMAJOR_AXIS":"6869.537","COUNTRY_CODE":"US","OBJECT_TYPE":"PAYLOAD","GP_ID":"217276564","CENTER_NAME":"EARTH","RA_OF_ASC_NODE":"111.5954","ELEMENT_SET_NO":"999","CLASSIFICATION_TYPE":"U","ARG_OF_PERICENTER":"54.3360","MEAN_MOTION_DDOT":"0.0000000000000","PERIAPSIS":"490.326","FILE":"3650001","OBJECT_NAME":"STARLINK-4581","REV_AT_EPOCH":"130","APOAPSIS":"492.478"},{"PERIAPSIS":"492.114","FILE":"3650001","OBJECT_NAME":"STARLINK-4553","REV_AT_EPOCH":"130","APOAPSIS":"494.125","ARG_OF_PERICENTER":"50.5614","MEAN_MOTION_DDOT":"0.0000000000000","ELEMENT_SET_NO":"999","CLASSIFICATION_TYPE":"U","GP_ID":"217277582","RA_OF_ASC_NODE":"111.6463","CENTER_NAME":"EARTH","EPOCH":"2022-11-10T00:00:00.999648","SEMIMAJOR_AXIS":"6871.254","RCS_SIZE":"LARGE","COUNTRY_CODE":"US","OBJECT_TYPE":"PAYLOAD","BSTAR":"-0.05099500000000","LAUNCH_DATE":"2022-08-19","MEAN_MOTION":"15.24223709","TLE_LINE2":"2 53577  53.2166 111.6463 0001463  50.5614  34.9223 15.24223709  1301","DECAY_DATE":null,"TLE_LINE1":"1 53577U 22101BC  22314.00001157 -.01161338  00000-0 -50995-1 0  9993","REF_FRAME":"TEME","MEAN_MOTION_DOT":"-0.01161338","INCLINATION":"53.2166","OBJECT_ID":"2022-101BC","PERIOD":"94.474","SITE":"AFETR","ECCENTRICITY":"0.00014630","TIME_SYSTEM":"UTC","MEAN_ANOMALY":"34.9223","NORAD_CAT_ID":"53577","EPHEMERIS_TYPE":"0","MEAN_ELEMENT_THEORY":"SGP4"},{"OBJECT_TYPE":"PAYLOAD","COUNTRY_CODE":"US","RCS_SIZE":"LARGE","SEMIMAJOR_AXIS":"6868.569","EPOCH":"2022-11-10T00:00:00.999648","BSTAR":"-0.04912900000000","LAUNCH_DATE":"2022-08-19","MEAN_MOTION":"15.25117654","ECCENTRICITY":"0.00015160","PERIOD":"94.419","SITE":"AFETR","OBJECT_ID":"2022-101BD","INCLINATION":"53.2167","TLE_LINE1":"1 53578U 22101BD  22314.00001157 -.01150286  00000-0 -49129-1 0  9991","DECAY_DATE":null,"MEAN_MOTION_DOT":"-0.01150286","REF_FRAME":"TEME","TLE_LINE2":"2 53578  53.2167 111.5697 0001516  52.4087  72.0904 15.25117654  1306","MEAN_ELEMENT_THEORY":"SGP4","EPHEMERIS_TYPE":"0","MEAN_ANOMALY":"72.0904","NORAD_CAT_ID":"53578","TIME_SYSTEM":"UTC","APOAPSIS":"491.475","REV_AT_EPOCH":"130","OBJECT_NAME":"STARLINK-4556","FILE":"3650001","PERIAPSIS":"489.393","MEAN_MOTION_DDOT":"0.0000000000000","ARG_OF_PERICENTER":"52.4087","CLASSIFICATION_TYPE":"U","ELEMENT_SET_NO":"999","RA_OF_ASC_NODE":"111.5697","CENTER_NAME":"EARTH","GP_ID":"217276733"},{"RA_OF_ASC_NODE":"111.5439","CENTER_NAME":"EARTH","GP_ID":"217277491","CLASSIFICATION_TYPE":"U","ELEMENT_SET_NO":"999","ARG_OF_PERICENTER":"58.9585","MEAN_MOTION_DDOT":"0.0000000000000","REV_AT_EPOCH":"130","APOAPSIS":"490.496","OBJECT_NAME":"STARLINK-4580","FILE":"3650001","PERIAPSIS":"488.531","NORAD_CAT_ID":"53579","MEAN_ANOMALY":"78.1995","EPHEMERIS_TYPE":"0","MEAN_ELEMENT_THEORY":"SGP4","TIME_SYSTEM":"UTC","SITE":"AFETR","PERIOD":"94.400","ECCENTRICITY":"0.00014310","TLE_LINE2":"2 53579  53.2168 111.5439 0001431  58.9585  78.1995 15.25424307  1305","DECAY_DATE":null,"TLE_LINE1":"1 53579U 22101BE  22314.00001157 -.01154858  00000-0 -48886-1 0  9990","MEAN_MOTION_DOT":"-0.01154858","INCLINATION":"53.2168","REF_FRAME":"TEME","OBJECT_ID":"2022-101BE","LAUNCH_DATE":"2022-08-19","BSTAR":"-0.04888600000000","MEAN_MOTION":"15.25424307","COUNTRY_CODE":"US","OBJECT_TYPE":"PAYLOAD","EPOCH":"2022-11-10T00:00:00.999648","SEMIMAJOR_AXIS":"6867.649","RCS_SIZE":"LARGE"},{"RA_OF_ASC_NODE":"301.8001","CENTER_NAME":"EARTH","GP_ID":"217277753","CLASSIFICATION_TYPE":"U","ELEMENT_SET_NO":"999","ARG_OF_PERICENTER":"57.4426","MEAN_MOTION_DDOT":"0.0000000000000","REV_AT_EPOCH":"130","APOAPSIS":"540.778","FILE":"3650001","OBJECT_NAME":"STARLINK-4691","PERIAPSIS":"538.943","NORAD_CAT_ID":"53588","MEAN_ANOMALY":"297.2605","EPHEMERIS_TYPE":"0","MEAN_ELEMENT_THEORY":"SGP4","TIME_SYSTEM":"UTC","SITE":"AFETR","PERIOD":"95.440","ECCENTRICITY":"0.00013260","TLE_LINE2":"2 53588  53.2151 301.8001 0001326  57.4426 297.2605 15.08802412  1307","TLE_LINE1":"1 53588U 22104A   22314.00001157  .00024598  00000-0  15598-2 0  9992","MEAN_MOTION_DOT":"0.00024598","DECAY_DATE":null,"REF_FRAME":"TEME","INCLINATION":"53.2151","OBJECT_ID":"2022-104A","MEAN_MOTION":"15.08802412","LAUNCH_DATE":"2022-08-28","BSTAR":"0.00155980000000","COUNTRY_CODE":"US","OBJECT_TYPE":"PAYLOAD","EPOCH":"2022-11-10T00:00:00.999648","SEMIMAJOR_AXIS":"6917.995","RCS_SIZE":"LARGE"},{"CLASSIFICATION_TYPE":"U","ELEMENT_SET_NO":"999","CENTER_NAME":"EARTH","RA_OF_ASC_NODE":"301.6078","GP_ID":"217276565","APOAPSIS":"540.937","REV_AT_EPOCH":"130","FILE":"3650001","OBJECT_NAME":"STARLINK-4673","PERIAPSIS":"538.847","MEAN_MOTION_DDOT":"0.0000000000000","ARG_OF_PERICENTER":"63.9165","ECCENTRICITY":"0.00015110","SITE":"AFETR","PERIOD":"95.441","OBJECT_ID":"2022-104B","DECAY_DATE":null,"TLE_LINE1":"1 53589U 22104B   22314.00001157  .00021340  00000-0  13566-2 0  9998","MEAN_MOTION_DOT":"0.00021340","INCLINATION":"53.2159","REF_FRAME":"TEME","TLE_LINE2":"2 53589  53.2159 301.6078 0001511  63.9165  30.9138 15.08792068  1304","MEAN_ELEMENT_THEORY":"SGP4","EPHEMERIS_TYPE":"0","MEAN_ANOMALY":"30.9138","NORAD_CAT_ID":"53589","TIME_SYSTEM":"UTC","OBJECT_TYPE":"PAYLOAD","COUNTRY_CODE":"US","RCS_SIZE":"LARGE","SEMIMAJOR_AXIS":"6918.027","EPOCH":"2022-11-10T00:00:00.999648","LAUNCH_DATE":"2022-08-28","BSTAR":"0.00135660000000","MEAN_MOTION":"15.08792068"},{"TLE_LINE2":"2 53590  53.2166 301.7625 0001232  76.3846 298.3361 15.08821554  1308","DECAY_DATE":null,"TLE_LINE1":"1 53590U 22104C   22314.00001157  .00000950  00000-0  77799-4 0  9994","MEAN_MOTION_DOT":"0.00000950","REF_FRAME":"TEME","INCLINATION":"53.2166","OBJECT_ID":"2022-104C","SITE":"AFETR","PERIOD":"95.439","ECCENTRICITY":"0.00012320","TIME_SYSTEM":"UTC","NORAD_CAT_ID":"53590","MEAN_ANOMALY":"298.3361","EPHEMERIS_TYPE":"0","MEAN_ELEMENT_THEORY":"SGP4","EPOCH":"2022-11-10T00:00:00.999648","SEMIMAJOR_AXIS":"6917.937","RCS_SIZE":"LARGE","COUNTRY_CODE":"US","OBJECT_TYPE":"PAYLOAD","LAUNCH_DATE":"2022-08-28","MEAN_MOTION":"15.08821554","BSTAR":"0.00007779900000","ELEMENT_SET_NO":"999","CLASSIFICATION_TYPE":"U","GP_ID":"217277583","CENTER_NAME":"EARTH","RA_OF_ASC_NODE":"301.7625","PERIAPSIS":"538.949","FILE":"3650001","OBJECT_NAME":"STARLINK-4689","REV_AT_EPOCH":"130","APOAPSIS":"540.654","ARG_OF_PERICENTER":"76.3846","MEAN_MOTION_DDOT":"0.0000000000000"},{"EPOCH":"2022-11-10T00:00:00.999648","SEMIMAJOR_AXIS":"6917.986","RCS_SIZE":"LARGE","COUNTRY_CODE":"US","OBJECT_TYPE":"PAYLOAD","LAUNCH_DATE":"2022-08-28","BSTAR":"0.00141220000000","MEAN_MOTION":"15.08805295","TLE_LINE2":"2 53591  53.2162 301.7206 0001137  77.2971 317.4658 15.08805295  1309","DECAY_DATE":null,"TLE_LINE1":"1 53591U 22104D   22314.00001157  .00022237  00000-0  14122-2 0  9996","MEAN_MOTION_DOT":"0.00022237","REF_FRAME":"TEME","INCLINATION":"53.2162","OBJECT_ID":"2022-104D","SITE":"AFETR","PERIOD":"95.440","ECCENTRICITY":"0.00011370","TIME_SYSTEM":"UTC","NORAD_CAT_ID":"53591","MEAN_ANOMALY":"317.4658","EPHEMERIS_TYPE":"0","MEAN_ELEMENT_THEORY":"SGP4","OBJECT_NAME":"STARLINK-4674","FILE":"3650001","PERIAPSIS":"539.065","REV_AT_EPOCH":"130","APOAPSIS":"540.638","ARG_OF_PERICENTER":"77.2971","MEAN_MOTION_DDOT":"0.0000000000000","ELEMENT_SET_NO":"999","CLASSIFICATION_TYPE":"U","GP_ID":"217276734","CENTER_NAME":"EARTH","RA_OF_ASC_NODE":"301.7206"},{"CLASSIFICATION_TYPE":"U","ELEMENT_SET_NO":"999","CENTER_NAME":"EARTH","RA_OF_ASC_NODE":"301.6838","GP_ID":"217277492","REV_AT_EPOCH":"130","APOAPSIS":"540.792","PERIAPSIS":"538.850","FILE":"3650001","OBJECT_NAME":"STARLINK-4672","ARG_OF_PERICENTER":"74.5073","MEAN_MOTION_DDOT":"0.0000000000000","SITE":"AFETR","PERIOD":"95.439","ECCENTRICITY":"0.00014040","DECAY_DATE":null,"TLE_LINE1":"1 53592U 22104E   22314.00001157  .00021682  00000-0  13771-2 0  9999","MEAN_MOTION_DOT":"0.00021682","REF_FRAME":"TEME","INCLINATION":"53.2153","TLE_LINE2":"2 53592  53.2153 301.6838 0001404  74.5073 340.2620 15.08815281  1309","OBJECT_ID":"2022-104E","EPHEMERIS_TYPE":"0","MEAN_ANOMALY":"340.2620","NORAD_CAT_ID":"53592","MEAN_ELEMENT_THEORY":"SGP4","TIME_SYSTEM":"UTC","COUNTRY_CODE":"US","OBJECT_TYPE":"PAYLOAD","EPOCH":"2022-11-10T00:00:00.999648","RCS_SIZE":"LARGE","SEMIMAJOR_AXIS":"6917.956","LAUNCH_DATE":"2022-08-28","BSTAR":"0.00137710000000","MEAN_MOTION":"15.08815281"},{"MEAN_MOTION_DDOT":"0.0000000000000","ARG_OF_PERICENTER":"61.9824","APOAPSIS":"540.842","REV_AT_EPOCH":"130","OBJECT_NAME":"STARLINK-4671","FILE":"3650001","PERIAPSIS":"538.930","CENTER_NAME":"EARTH","RA_OF_ASC_NODE":"301.6407","GP_ID":"217276984","CLASSIFICATION_TYPE":"U","ELEMENT_SET_NO":"999","MEAN_MOTION":"15.08794052","LAUNCH_DATE":"2022-08-28","BSTAR":"0.00150170000000","OBJECT_TYPE":"PAYLOAD","COUNTRY_CODE":"US","RCS_SIZE":"LARGE","SEMIMAJOR_AXIS":"6918.021","EPOCH":"2022-11-10T00:00:00.999648","MEAN_ELEMENT_THEORY":"SGP4","EPHEMERIS_TYPE":"0","MEAN_ANOMALY":"12.8182","NORAD_CAT_ID":"53593","TIME_SYSTEM":"UTC","ECCENTRICITY":"0.00013820","PERIOD":"95.440","SITE":"AFETR","OBJECT_ID":"2022-104F","DECAY_DATE":null,"TLE_LINE1":"1 53593U 22104F   22314.00001157  .00023662  00000-0  15017-2 0  9995","INCLINATION":"53.2171","MEAN_MOTION_DOT":"0.00023662","REF_FRAME":"TEME","TLE_LINE2":"2 53593  53.2171 301.6407 0001382  61.9824  12.8182 15.08794052  1308"}];
